GLOBALSTAR M045         
1 25676U 99019A   25161.58042921 -.00000118  00000+0 -21641-3 0  9998
2 25676  51.9989 324.1005 0000930 134.8442 263.6562 12.27062580192580
GLOBALSTAR M019         
1 25677U 99019B   25161.53890784 -.00000161  00000+0 -73910-3 0  9996
2 25677  51.9881  94.1142 0001410 329.2828 201.8658 12.13876757184338
GLOBALSTAR M044         
1 25678U 99019C   25161.61969281 -.00000026  00000+0  81048-3 0  9995
2 25678  51.9988  44.4307 0006795  31.4781 343.4030 11.90252094170540
GLOBALSTAR M025         
1 25770U 99031A   25161.47154060 -.00000048  00000+0  61635-3 0  9991
2 25770  51.9775 174.8290 0001526 150.5783   1.8971 11.22558608480951
GLOBALSTAR M049         
1 25771U 99031B   25161.42803640 -.00000086  00000+0 -71755-3 0  9999
2 25771  51.9845 209.3552 0002510 350.4116   9.6632 11.12115631116679
GLOBALSTAR M047         
1 25772U 99031C   25161.43793831 -.00000037  00000+0  90971-3 0  9997
2 25772  51.9802 206.9466 0016801 250.6193 109.2796 11.31928699470346
GLOBALSTAR M052         
1 25773U 99031D   25161.40257779 -.00000052  00000+0  47694-3 0  9992
2 25773  51.9885 318.1811 0003153 152.2166 219.7051 11.15059930477759
